NORAD_CAT_ID,OBJECT_NAME,OBJECT_TYPE,EPOCH,MEAN_MOTION,ECCENTRICITY,INCLINATION,RA_OF_ASC_NODE,ARG_OF_PERICENTER,MEAN_ANOMALY,BSTAR,MEAN_MOTION_DOT,MEAN_MOTION_DDOT,TLE_LINE0,TLE_LINE1,TLE_LINE2,SEMIMAJOR_AXIS,PERIOD,APOGEE,PERIGEE,DECAYED
52624.0,STARLINK-4009,PAYLOAD,2024-05-16 00:09:41,15.088421,0.0001856,53.2185,3.9994,83.0375,277.0828,-0.00011514,-2.12e-05,0.0,0 STARLINK-4009,1 52624U 22052AC  24137.00673133 -.00002120  00000-0 -11514-3 0  9992,2 52624  53.2185   3.9994 0001856  83.0375 277.0828 15.08842100111326,6917.874,95.437,541.023,538.455,0.0
52624.0,STARLINK-4009,PAYLOAD,2024-05-16 08:06:37,15.08843134,0.0002166,53.2204,2.5144,75.774,284.3493,-7.6301e-05,-1.503e-05,0.0,0 STARLINK-4009,1 52624U 22052AC  24137.33793012 -.00001503  00000-0 -76301-4 0  9997,2 52624  53.2204   2.5144 0002166  75.7740 284.3493 15.08843134110998,6917.871,95.437,541.234,538.237,0.0
52624.0,STARLINK-4009,PAYLOAD,2024-05-17 00:00:27,15.08858181,0.0002133,53.2196,359.5402,82.0492,278.0742,-0.00012555,-2.287e-05,0.0,0 STARLINK-4009,1 52624U 22052AC  24138.00031776 -.00002287  00000-0 -12555-3 0  9994,2 52624  53.2196 359.5402 0002133  82.0492 278.0742 15.08858181111478,6917.825,95.436,541.165,538.214,0.0
52624.0,STARLINK-4009,PAYLOAD,2024-05-17 07:57:23,15.08851221,0.0001897,53.2184,358.0505,77.7192,282.4012,-0.00028082,-4.756e-05,0.0,0 STARLINK-4009,1 52624U 22052AC  24138.33151721 -.00004756  00000-0 -28082-3 0  9998,2 52624  53.2184 358.0505 0001897  77.7192 282.4012 15.08851221111148,6917.846,95.437,541.023,538.399,0.0
52624.0,STARLINK-4009,PAYLOAD,2024-05-17 20:40:29,15.08828557,0.0002376,53.2174,355.6735,83.6725,276.4537,0.00020893,3.037e-05,0.0,0 STARLINK-4009,1 52624U 22052AC  24138.86145756  .00003037  00000-0  20893-3 0  9998,2 52624  53.2174 355.6735 0002376  83.6725 276.4537 15.08828557111608,6917.915,95.438,541.424,538.137,0.0
52624.0,STARLINK-4009,PAYLOAD,2024-05-17 22:15:53,15.08821516,0.0001666,53.2189,355.3761,88.3081,271.8102,-3.7187e-06,-3.47e-06,0.0,0 STARLINK-4009,1 52624U 22052AC  24138.92769957 -.00000347  00000-0 -37187-5 0  9999,2 52624  53.2189 355.3761 0001666  88.3081 271.8102 15.08821516111232,6917.937,95.439,540.954,538.649,0.0
52624.0,STARLINK-4009,PAYLOAD,2024-05-18 07:48:11,15.08842702,0.0001621,53.2186,353.5936,87.135,272.9827,0.00026948,4.004e-05,0.0,0 STARLINK-4009,1 52624U 22052AC  24139.32513219  .00004004  00000-0  26948-3 0  9995,2 52624  53.2186 353.5936 0001621  87.1350 272.9827 15.08842702111674,6917.872,95.437,540.859,538.616,0.0
52624.0,STARLINK-4009,PAYLOAD,2024-05-18 20:31:15,15.08858953,0.0001762,53.2175,351.2134,89.7191,270.4003,0.0006126,9.48e-05,0.0,0 STARLINK-4009,1 52624U 22052AC  24139.85504460  .00009480  00000-0  61260-3 0  9990,2 52624  53.2175 351.2134 0001762  89.7191 270.4003 15.08858953111757,6917.822,95.436,540.906,538.469,0.0
52624.0,STARLINK-4009,PAYLOAD,2024-05-19 14:00:31,15.0884012,0.000132,53.218,347.9439,77.7014,282.4126,0.0002109,3.07e-05,0.0,0 STARLINK-4009,1 52624U 22052AC  24140.58369329  .00003070  00000-0  21090-3 0  9991,2 52624  53.2180 347.9439 0001320  77.7014 282.4126 15.08840120111480,6917.88,95.438,540.658,538.832,0.0
52624.0,STARLINK-4009,PAYLOAD,2024-05-19 20:22:03,15.08833284,0.0001233,53.2177,346.7521,74.9008,285.2121,-8.9014e-05,-1.704e-05,0.0,0 STARLINK-4009,1 52624U 22052AC  24140.84865579 -.00001704  00000-0 -89014-4 0  9993,2 52624  53.2177 346.7521 0001233  74.9008 285.2121 15.08833284111906,6917.901,95.438,540.619,538.913,0.0
52624.0,STARLINK-4009,PAYLOAD,2024-05-19 23:32:50,15.08833667,0.0001288,53.2182,346.1588,69.2318,290.8812,-6.188e-05,-1.272e-05,0.0,0 STARLINK-4009,1 52624U 22052AC  24140.98113612 -.00001272  00000-0 -61880-4 0  9993,2 52624  53.2182 346.1588 0001288  69.2318 290.8812 15.08833667111544,6917.9,95.438,540.656,538.874,0.0
52624.0,STARLINK-4009,PAYLOAD,2024-05-20 20:12:50,15.08852499,0.0001371,53.2182,342.2931,69.0406,291.0733,0.00027691,4.123e-05,0.0,0 STARLINK-4009,1 52624U 22052AC  24141.84224980  .00004123  00000-0  27691-3 0  9997,2 52624  53.2182 342.2931 0001371  69.0406 291.0733 15.08852499112058,6917.842,95.437,540.656,538.759,0.0
52624.0,STARLINK-4009,PAYLOAD,2024-05-21 00:58:59,15.08857389,0.0001363,53.2175,341.4018,60.2155,299.8972,0.00058374,9.019e-05,0.0,0 STARLINK-4009,1 52624U 22052AC  24142.04096977  .00009019  00000-0  58374-3 0  9994,2 52624  53.2175 341.4018 0001363  60.2155 299.8972 15.08857389111707,6917.827,95.436,540.635,538.749,0.0
52624.0,STARLINK-4009,PAYLOAD,2024-05-21 18:28:14,15.0884927,0.000142,53.2185,338.1306,68.1054,292.0089,0.00026013,3.855e-05,0.0,0 STARLINK-4009,1 52624U 22052AC  24142.76961140  .00003855  00000-0  26013-3 0  9993,2 52624  53.2185 338.1306 0001420  68.1054 292.0089 15.08849270112198,6917.852,95.437,540.699,538.735,0.0
52624.0,STARLINK-4009,PAYLOAD,2024-05-22 21:29:47,15.0884542,0.0001385,53.2183,333.0756,75.3417,284.7728,0.00024211,3.568e-05,0.0,0 STARLINK-4009,1 52624U 22052AC  24143.89568991  .00003568  00000-0  24211-3 0  9994,2 52624  53.2183 333.0756 0001385  75.3417 284.7728 15.08845420111989,6917.864,95.437,540.687,538.771,0.0
52624.0,STARLINK-4009,PAYLOAD,2024-05-23 18:09:49,15.08830567,0.0001419,53.2178,329.2073,75.5174,284.5975,0.00040344,6.137e-05,0.0,0 STARLINK-4009,1 52624U 22052AC  24144.75681728  .00006137  00000-0  40344-3 0  9994,2 52624  53.2178 329.2073 0001419  75.5174 284.5975 15.08830567112497,6917.909,95.438,540.756,538.793,0.0
52624.0,STARLINK-4009,PAYLOAD,2024-05-23 21:20:35,15.08832973,0.0001407,53.2177,328.6125,80.3312,279.7839,0.00030636,4.59e-05,0.0,0 STARLINK-4009,1 52624U 22052AC  24144.88929722  .00004590  00000-0  30636-3 0  9991,2 52624  53.2177 328.6125 0001407  80.3312 279.7839 15.08832973112131,6917.902,95.438,540.74,538.794,0.0
52624.0,STARLINK-4009,PAYLOAD,2024-05-24 19:35:58,15.08854189,0.0001257,53.2169,324.4491,85.7578,274.3558,0.00064621,0.00010015,0.0,0 STARLINK-4009,1 52624U 22052AC  24145.81665311  .00010015  00000-0  64621-3 0  9996,2 52624  53.2169 324.4491 0001257  85.7578 274.3558 15.08854189112657,6917.837,95.437,540.572,538.832,0.0
52624.0,STARLINK-4009,PAYLOAD,2024-05-24 21:11:21,15.08856115,0.0001247,53.2168,324.1514,86.4072,273.7063,0.0006658,0.00010329,0.0,0 STARLINK-4009,1 52624U 22052AC  24145.88289218  .00010329  00000-0  66580-3 0  9995,2 52624  53.2168 324.1514 0001247  86.4072 273.7063 15.08856115112289,6917.831,95.437,540.559,538.833,0.0
52624.0,STARLINK-4009,PAYLOAD,2024-05-25 11:29:50,15.08838682,0.0001247,53.216,321.4764,87.4576,272.6559,5.6418e-05,6.1e-06,0.0,0 STARLINK-4009,1 52624U 22052AC  24146.47905619  .00000610  00000-0  56418-4 0  9993,2 52624  53.2160 321.4764 0001247  87.4576 272.6559 15.08838682112757,6917.884,95.438,540.612,538.887,0.0
52624.0,STARLINK-4009,PAYLOAD,2024-05-26 11:20:37,15.08841725,0.0001115,53.2165,317.0203,78.5969,281.5148,0.00032276,4.853e-05,0.0,0 STARLINK-4009,1 52624U 22052AC  24147.47265986  .00004853  00000-0  32276-3 0  9998,2 52624  53.2165 317.0203 0001115  78.5969 281.5148 15.08841725112522,6917.875,95.437,540.511,538.969,0.0
52624.0,STARLINK-4009,PAYLOAD,2024-05-26 17:42:10,15.08841554,0.0001236,53.2173,315.829,86.8267,273.2867,0.00034571,5.219e-05,0.0,0 STARLINK-4009,1 52624U 22052AC  24147.73762028  .00005219  00000-0  34571-3 0  9993,2 52624  53.2173 315.8290 0001236  86.8267 273.2867 15.08841554112942,6917.876,95.437,540.596,538.886,0.0
52624.0,STARLINK-4009,PAYLOAD,2024-05-27 04:49:52,15.08840373,0.0001117,53.2161,313.7485,51.1031,309.0061,0.00026411,3.918e-05,0.0,0 STARLINK-4009,1 52624U 22052AC  24148.20130144  .00003918  00000-0  26411-3 0  9992,2 52624  53.2161 313.7485 0001117  51.1031 309.0061 15.08840373113015,6917.879,95.438,540.517,538.972,0.0
52624.0,STARLINK-4009,PAYLOAD,2024-05-28 11:02:13,15.08833019,9.66e-05,53.2167,308.0904,70.1151,289.9945,0.00026198,3.883e-05,0.0,0 STARLINK-4009,1 52624U 22052AC  24149.45987835  .00003883  00000-0  26198-3 0  9990,2 52624  53.2167 308.0904 0000966  70.1151 289.9945 15.08833019113206,6917.902,95.438,540.435,539.098,0.0
52624.0,STARLINK-4009,PAYLOAD,2024-05-28 14:12:59,15.08840834,0.0001194,53.2175,307.5009,63.6073,296.5042,0.00048052,7.368e-05,0.0,0 STARLINK-4009,1 52624U 22052AC  24149.59235757  .00007368  00000-0  48052-3 0  9999,2 52624  53.2175 307.5009 0001194  63.6073 296.5042 15.08840834112843,6917.878,95.438,540.569,538.917,0.0
52624.0,STARLINK-4009,PAYLOAD,2024-05-28 17:23:45,15.08849697,0.0001221,53.2175,306.9035,68.2024,291.9098,0.00087247,0.00013628,0.0,0 STARLINK-4009,1 52624U 22052AC  24149.72483717  .00013628  00000-0  87247-3 0  9990,2 52624  53.2175 306.9035 0001221  68.2024 291.9098 15.08849697113244,6917.851,95.437,540.56,538.871,0.0
52624.0,STARLINK-4009,PAYLOAD,2024-05-29 09:17:36,15.08856987,0.0001529,53.2195,303.9413,84.8297,275.287,0.00051693,7.952e-05,0.0,0 STARLINK-4009,1 52624U 22052AC  24150.38723367  .00007952  00000-0  51693-3 0  9991,2 52624  53.2195 303.9413 0001529  84.8297 275.2870 15.08856987113344,6917.828,95.436,540.751,538.636,0.0
52624.0,STARLINK-4009,PAYLOAD,2024-05-29 14:03:46,15.08848735,0.0001216,53.2165,303.0345,94.6603,265.4528,0.00033947,5.12e-05,0.0,0 STARLINK-4009,1 52624U 22052AC  24150.58595586  .00005120  00000-0  33947-3 0  9990,2 52624  53.2165 303.0345 0001216  94.6603 265.4528 15.08848735112992,6917.854,95.437,540.56,538.877,0.0
52624.0,STARLINK-4009,PAYLOAD,2024-05-29 15:39:09,15.0884345,0.0001208,53.2167,302.7382,103.0821,257.0305,0.00013092,1.797e-05,0.0,0 STARLINK-4009,1 52624U 22052AC  24150.65219665  .00001797  00000-0  13092-3 0  9994,2 52624  53.2167 302.7382 0001208 103.0821 257.0305 15.08843450113382,6917.87,95.437,540.571,538.899,0.0
52624.0,STARLINK-4009,PAYLOAD,2024-05-30 13:54:33,15.08845789,0.00012,53.2164,298.5748,103.4809,256.6317,0.0001778,2.543e-05,0.0,0 STARLINK-4009,1 52624U 22052AC  24151.57955571  .00002543  00000-0  17780-3 0  9997,2 52624  53.2164 298.5748 0001200 103.4809 256.6317 15.08845789113148,6917.863,95.437,540.558,538.898,0.0
